NUSAT-48 (HENRIETTA LE*)
1 60498U 24149AG  26068.80506098  .00012988  00000+0  45212-3 0  9999
2 60498  97.3923 150.8264 0002754 263.3026  96.7901 15.29812597 86946
STARLINK-32582          
1 62033U 24216B   26068.68314801  .00031241  00000+0  11402-2 0  9992
2 62033  42.9967 263.3647 0001604 250.8388 109.2290 15.27572071 73795
